STARLINK-1245
1 15215C 20012AP  21326.13281551 -.00016943  00000-0 -11351-2 0  3264
2 15215  53.0529 228.1428 0002275  69.0238  78.9505 15.06417362    14
